0 MEGSAT 1
1 26546U 00057B   13282.45687738  .00001051  00000-0  13337-3 0   357
2 26546 064.5571 222.0050 0036541 233.7200 227.7428 14.86795526706110
0 MEGSAT 1
1 26546U 00057B   13283.64861138  .00001126  00000-0  12419-3 0   361
2 26546 064.5574 218.3073 0037233 231.2827 128.5455 14.86791986706296
0 MEGSAT 1
1 26546U 00057B   13283.66387469  .00000998  00000-0  12754-3 0   361
2 26546 064.5572 218.2495 0036432 233.5673 207.9499 14.86798653706293
0 MEGSAT 1
1 26546U 00057B   13286.15595921  .00000977  00000-0  12521-3 0   383
2 26546 064.5572 210.4957 0036252 233.2914 226.3396 14.86804153706660
0 MEGSAT 1
1 26546U 00057B   13287.36999230  .00001184  00000-0  14805-3 0   397
2 26546 064.5571 206.7185 0036148 233.1064 244.2838 14.86807076706846
0 MEGSAT 1
1 26546U 00057B   13288.37902825  .00001734  00000-0  20875-3 0   400
2 26546 064.5570 203.5791 0036099 232.9717 245.0035 14.86812168706992
0 MEGSAT 1
1 26546U 00057B   13289.38582413  .00001245  00000-0  15477-3 0   419
2 26546 064.5568 200.4466 0036003 232.8475 233.7357 14.86817264707140
0 MEGSAT 1
1 26546U 00057B   13291.13540428  .00001268  00000-0  15727-3 0   429
2 26546 064.5565 195.0030 0035853 232.6212 238.1650 14.86822067707403
0 MEGSAT 1
1 26546U 00057B   13292.15327633  .00001311  00000-0  16200-3 0   430
2 26546 064.5564 191.8358 0035720 232.4384 286.2784 14.86823997707551
0 MEGSAT 1
1 26546U 00057B   13293.81632265  .00001389  00000-0  17060-3 0   445
2 26546 064.5563 186.6613 0035590 232.2480 187.5704 14.86829369707808
0 MEGSAT 1
1 26546U 00057B   13294.82617248  .00001458  00000-0  17821-3 0   454
2 26546 064.5562 183.5190 0035525 232.1724 192.6664 14.86833480707958
0 MEGSAT 1
1 26546U 00057B   13295.83592606  .00001462  00000-0  17865-3 0   460
2 26546 064.5560 180.3772 0035465 232.0793 197.2781 14.86835732708106
